{
    "links": {
        "self": "http://www.neowsapp.com/rest/v1/neo/54051104?api_key=iIulBulltgU6a56xZRHN4H3l9WmuAYTsLGpBGhQ2"
    },
    "id": "54051104",
    "neo_reference_id": "54051104",
    "name": "(2020 PA5)",
    "designation": "2020 PA5",
    "nasa_jpl_url": "http://ssd.jpl.nasa.gov/sbdb.cgi?sstr=54051104",
    "absolute_magnitude_h": 23.479,
    "estimated_diameter": {
        "kilometers": {
            "estimated_diameter_min": 0.0535494453,
            "estimated_diameter_max": 0.1197401999
        },
        "meters": {
            "estimated_diameter_min": 53.5494453148,
            "estimated_diameter_max": 119.7401998814
        },
        "miles": {
            "estimated_diameter_min": 0.0332740724,
            "estimated_diameter_max": 0.0744030877
        },
        "feet": {
            "estimated_diameter_min": 175.6871621668,
            "estimated_diameter_max": 392.8484373789
        }
    },
    "is_potentially_hazardous_asteroid": false,
    "close_approach_data": [
        {
            "close_approach_date": "2003-08-23",
            "close_approach_date_full": "2003-Aug-23 23:59",
            "epoch_date_close_approach": 1061683140000,
            "relative_velocity": {
                "kilometers_per_second": "5.9767140943",
                "kilometers_per_hour": "21516.1707394263",
                "miles_per_hour": "13369.3117575063"
            },
            "miss_distance": {
                "astronomical": "0.2794837468",
                "lunar": "108.7191775052",
                "kilometers": "41810173.220899316",
                "miles": "25979636.9476939208"
            },
            "orbiting_body": "Earth"
        },
        {
            "close_approach_date": "2020-08-20",
            "close_approach_date_full": "2020-Aug-20 05:16",
            "epoch_date_close_approach": 1597900560000,
            "relative_velocity": {
                "kilometers_per_second": "5.9613267486",
                "kilometers_per_hour": "21460.7762951009",
                "miles_per_hour": "13334.8918040309"
            },
            "miss_distance": {
                "astronomical": "0.2761678308",
                "lunar": "107.4292861812",
                "kilometers": "41314119.250200396",
                "miles": "25671403.3032856248"
            },
            "orbiting_body": "Earth"
        },
        {
            "close_approach_date": "2037-08-18",
            "close_approach_date_full": "2037-Aug-18 00:12",
            "epoch_date_close_approach": 2134167120000,
            "relative_velocity": {
                "kilometers_per_second": "6.0313553272",
                "kilometers_per_hour": "21712.8791777509",
                "miles_per_hour": "13491.5387313086"
            },
            "miss_distance": {
                "astronomical": "0.2927959291",
                "lunar": "113.8976164199",
                "kilometers": "43801647.338031017",
                "miles": "27217081.5830093546"
            },
            "orbiting_body": "Earth"
        }
    ],
    "orbital_data": {
        "orbit_id": "2",
        "orbit_determination_date": "2020-08-19 07:55:03",
        "first_observation_date": "2020-07-18",
        "last_observation_date": "2020-08-17",
        "data_arc_in_days": 30,
        "observations_used": 22,
        "orbit_uncertainty": "6",
        "minimum_orbit_intersection": ".275081",
        "jupiter_tisserand_invariant": "3.469",
        "epoch_osculation": "2459000.5",
        "eccentricity": ".4316662931478036",
        "semi_major_axis": "2.262479715774469",
        "inclination": "10.58560523565919",
        "ascending_node_longitude": "151.6208051725005",
        "orbital_period": "1243.012420431568",
        "perihelion_distance": "1.285843483544008",
        "perihelion_argument": "177.3163157931023",
        "aphelion_distance": "3.239115948004931",
        "perihelion_time": "2459085.199044886335",
        "mean_anomaly": "335.4695482861755",
        "mean_motion": ".2896189885817954",
        "equinox": "J2000",
        "orbit_class": {
            "orbit_class_type": "AMO",
            "orbit_class_description": "Near-Earth asteroid orbits similar to that of 1221 Amor",
            "orbit_class_range": "1.017 AU < q (perihelion) < 1.3 AU"
        }
    },
    "is_sentry_object": false
}